ORBCOMM FM37            
1 33064U 08031E   25051.58420329  .00004049  00000+0  57004-3 0  9999
2 33064  48.4383 177.7078 0006617 235.3958 234.7853 14.78999556896783
ORBCOMM FM40            
1 33065U 08031F   25051.58133972  .00005245  00000+0  69579-3 0  9994
2 33065  48.4404 163.6277 0008056 246.6292 127.3014 14.81031994896871
VESSELSAT 1             
1 37840U 11058C   25051.37086985  .00000505  00000+0  13083-3 0  9993
2 37840  19.9622  80.7229 0013591 342.4535  17.5399 14.11311095689784
ORBCOMM FM109           
1 40086U 14040A   25051.55489832  .00001736  00000+0  41223-3 0  9995
2 40086  47.0015 207.0092 0002098 185.9210 174.1650 14.57822212564049
ORBCOMM FM107           
1 40087U 14040B   25051.58857939  .00001892  00000+0  44533-3 0  9996
2 40087  47.0032 207.8534 0000973 150.3921 209.7019 14.57885326564121
ORBCOMM FM106           
1 40088U 14040C   25051.47143365  .00002831  00000+0  50930-3 0  9998
2 40088  47.0604  39.7990 0017683 247.5480 112.3538 14.68917375566310
ORBCOMM FM111           
1 40089U 14040D   25051.55618606  .00004949  00000+0  59079-3 0  9998
2 40089  47.0010 265.0902 0029967 353.4912   6.5592 14.85210237572889
ORBCOMM FM104           
1 40090U 14040E   25051.58759782  .00001507  00000+0  37415-3 0  9991
2 40090  47.0039 240.0806 0016021  31.5349 328.6493 14.56331271563623
